{
  "type": "FeatureCollection",
  "features": [
    {
      "type": "Feature",
      "properties": {
        "norad_id": 66429,
        "name": "STARLINK-35533",
        "group": "last-30-days",
        "lat": -38.68038624201108,
        "lon": -53.68701953279128,
        "alt_km": 446.2940987131806,
        "timestamp": "2025-12-09T09:46:46.420808+00:00",
        "meta_object_name": "STARLINK-35533",
        "meta_object_id": "2025-259H",
        "meta_epoch": "2025-12-09T00:00:02.000160",
        "meta_mean_motion": 15.40681837,
        "meta_eccentricity": 0.00014709,
        "meta_inclination": 43.0011,
        "meta_ra_of_asc_node": 69.4455,
        "meta_arg_of_pericenter": 268.9007,
        "meta_mean_anomaly": 234.8628,
        "meta_ephemeris_type": 0,
        "meta_classification_type": "U",
        "meta_norad_cat_id": 66429,
        "meta_element_set_no": 999,
        "meta_rev_at_epoch": 567,
        "meta_bstar": 0.00088134831,
        "meta_mean_motion_dot": 0.00036667,
        "meta_mean_motion_ddot": 0,
        "tle_line1": "1 66429U 25259H   25343.00002315  .00036667  00000+0  88135-3 0  9993",
        "tle_line2": "2 66429  43.0011  69.4455 0001470 268.9007 234.8628 15.40681837  5679"
      },
      "geometry": {
        "type": "Point",
        "coordinates": [
          -53.68701953279128,
          -38.68038624201108
        ]
      }
    },
    {
      "type": "Feature",
      "properties": {
        "norad_id": 66430,
        "name": "STARLINK-35470",
        "group": "last-30-days",
        "lat": -41.99193052057977,
        "lon": -37.929202465608874,
        "alt_km": 446.60844473997986,
        "timestamp": "2025-12-09T09:46:46.420821+00:00",
        "meta_object_name": "STARLINK-35470",
        "meta_object_id": "2025-259J",
        "meta_epoch": "2025-12-09T00:00:02.000160",
        "meta_mean_motion": 15.40854116,
        "meta_eccentricity": 0.00016021,
        "meta_inclination": 43.0011,
        "meta_ra_of_asc_node": 69.4164,
        "meta_arg_of_pericenter": 268.3173,
        "meta_mean_anomaly": 247.8902,
        "meta_ephemeris_type": 0,
        "meta_classification_type": "U",
        "meta_norad_cat_id": 66430,
        "meta_element_set_no": 999,
        "meta_rev_at_epoch": 567,
        "meta_bstar": -0.0079556761,
        "meta_mean_motion_dot": -0.003207,
        "meta_mean_motion_ddot": 0,
        "tle_line1": "1 66430U 25259J   25343.00002315 -.00320700  00000+0 -79557-2 0  9998",
        "tle_line2": "2 66430  43.0011  69.4164 0001602 268.3173 247.8902 15.40854116  5674"
      },
      "geometry": {
        "type": "Point",
        "coordinates": [
          -37.929202465608874,
          -41.99193052057977
        ]
      }
    },
    {
      "type": "Feature",
      "properties": {
        "norad_id": 66431,
        "name": "STARLINK-35439",
        "group": "last-30-days",
        "lat": -42.96814949515149,
        "lon": -21.264284704326926,
        "alt_km": 446.4510718145102,
        "timestamp": "2025-12-09T09:46:46.420832+00:00",
        "meta_object_name": "STARLINK-35439",
        "meta_object_id": "2025-259K",
        "meta_epoch": "2025-12-09T00:00:02.000160",
        "meta_mean_motion": 15.40713926,
        "meta_eccentricity": 0.00013009,
        "meta_inclination": 43.001,
        "meta_ra_of_asc_node": 69.3844,
        "meta_arg_of_pericenter": 280.5393,
        "meta_mean_anomaly": 248.0114,
        "meta_ephemeris_type": 0,
        "meta_classification_type": "U",
        "meta_norad_cat_id": 66431,
        "meta_element_set_no": 999,
        "meta_rev_at_epoch": 567,
        "meta_bstar": 0.00060332788,
        "meta_mean_motion_dot": 0.00024993,
        "meta_mean_motion_ddot": 0,
        "tle_line1": "1 66431U 25259K   25343.00002315  .00024993  00000+0  60333-3 0  9995",
        "tle_line2": "2 66431  43.0010  69.3844 0001300 280.5393 248.0114 15.40713926  5674"
      },
      "geometry": {
        "type": "Point",
        "coordinates": [
          -21.264284704326926,
          -42.96814949515149
        ]
      }
    },
    {
      "type": "Feature",
      "properties": {
        "norad_id": 66432,
        "name": "STARLINK-35446",
        "group": "last-30-days",
        "lat": -41.473491601328405,
        "lon": -4.53075303250277,
        "alt_km": 446.61203325916904,
        "timestamp": "2025-12-09T09:46:46.420842+00:00",
        "meta_object_name": "STARLINK-35446",
        "meta_object_id": "2025-259L",
        "meta_epoch": "2025-12-09T00:00:02.000160",
        "meta_mean_motion": 15.40680819,
        "meta_eccentricity": 0.00011062,
        "meta_inclination": 43.0006,
        "meta_ra_of_asc_node": 69.3533,
        "meta_arg_of_pericenter": 269.2328,
        "meta_mean_anomaly": 271.863,
        "meta_ephemeris_type": 0,
        "meta_classification_type": "U",
        "meta_norad_cat_id": 66432,
        "meta_element_set_no": 999,
        "meta_rev_at_epoch": 567,
        "meta_bstar": 0.00065655863,
        "meta_mean_motion_dot": 0.00027203,
        "meta_mean_motion_ddot": 0,
        "tle_line1": "1 66432U 25259L   25343.00002315  .00027203  00000+0  65656-3 0  9996",
        "tle_line2": "2 66432  43.0006  69.3533 0001106 269.2328 271.8630 15.40680819  5672"
      },
      "geometry": {
        "type": "Point",
        "coordinates": [
          -4.53075303250277,
          -41.473491601328405
        ]
      }
    },
    {
      "type": "Feature",
      "properties": {
        "norad_id": 66433,
        "name": "STARLINK-35457",
        "group": "last-30-days",
        "lat": -37.73247807792708,
        "lon": 10.839270775226383,
        "alt_km": 446.41180368478945,
        "timestamp": "2025-12-09T09:46:46.420853+00:00",
        "meta_object_name": "STARLINK-35457",
        "meta_object_id": "2025-259M",
        "meta_epoch": "2025-12-09T00:00:02.000160",
        "meta_mean_motion": 15.40686684,
        "meta_eccentricity": 0.00013345,
        "meta_inclination": 43.0006,
        "meta_ra_of_asc_node": 69.3239,
        "meta_arg_of_pericenter": 261.6194,
        "meta_mean_anomaly": 291.9071,
        "meta_ephemeris_type": 0,
        "meta_classification_type": "U",
        "meta_norad_cat_id": 66433,
        "meta_element_set_no": 999,
        "meta_rev_at_epoch": 567,
        "meta_bstar": 0.0004317036,
        "meta_mean_motion_dot": 0.00017764,
        "meta_mean_motion_ddot": 0,
        "tle_line1": "1 66433U 25259M   25343.00002315  .00017764  00000+0  43170-3 0  9995",
        "tle_line2": "2 66433  43.0006  69.3239 0001334 261.6194 291.9071 15.40686684  5674"
      },
      "geometry": {
        "type": "Point",
        "coordinates": [
          10.839270775226383,
          -37.73247807792708
        ]
      }
    },
    {
      "type": "Feature",
      "properties": {
        "norad_id": 66434,
        "name": "STARLINK-35389",
        "group": "last-30-days",
        "lat": -32.19832017957686,
        "lon": 24.43454378452592,
        "alt_km": 446.47182539145615,
        "timestamp": "2025-12-09T09:46:46.420864+00:00",
        "meta_object_name": "STARLINK-35389",
        "meta_object_id": "2025-259N",
        "meta_epoch": "2025-12-09T04:00:01.998720",
        "meta_mean_motion": 15.40636865,
        "meta_eccentricity": 9.56e-05,
        "meta_inclination": 43.0003,
        "meta_ra_of_asc_node": 68.3336,
        "meta_arg_of_pericenter": 264.5635,
        "meta_mean_anomaly": 146.9707,
        "meta_ephemeris_type": 0,
        "meta_classification_type": "U",
        "meta_norad_cat_id": 66434,
        "meta_element_set_no": 999,
        "meta_rev_at_epoch": 570,
        "meta_bstar": 0.0020798,
        "meta_mean_motion_dot": 0.00087394,
        "meta_mean_motion_ddot": 0,
        "tle_line1": "1 66434U 25259N   25343.16668980  .00087394  00000+0  20798-2 0  9995",
        "tle_line2": "2 66434  43.0003  68.3336 0000956 264.5635 146.9707 15.40636865  5705"
      },
      "geometry": {
        "type": "Point",
        "coordinates": [
          24.43454378452592,
          -32.19832017957686
        ]
      }
    },
    {
      "type": "Feature",
      "properties": {
        "norad_id": 66435,
        "name": "STARLINK-35502",
        "group": "last-30-days",
        "lat": -25.268279425373542,
        "lon": 36.48404220441202,
        "alt_km": 445.66907591221025,
        "timestamp": "2025-12-09T09:46:46.420874+00:00",
        "meta_object_name": "STARLINK-35502",
        "meta_object_id": "2025-259P",
        "meta_epoch": "2025-12-09T00:00:02.000160",
        "meta_mean_motion": 15.40829307,
        "meta_eccentricity": 0.00010262,
        "meta_inclination": 43.0006,
        "meta_ra_of_asc_node": 69.266,
        "meta_arg_of_pericenter": 253.1577,
        "meta_mean_anomaly": 325.2636,
        "meta_ephemeris_type": 0,
        "meta_classification_type": "U",
        "meta_norad_cat_id": 66435,
        "meta_element_set_no": 999,
        "meta_rev_at_epoch": 567,
        "meta_bstar": 0.00081429507,
        "meta_mean_motion_dot": 0.00034009,
        "meta_mean_motion_ddot": 0,
        "tle_line1": "1 66435U 25259P   25343.00002315  .00034009  00000+0  81430-3 0  9999",
        "tle_line2": "2 66435  43.0006  69.2660 0001026 253.1577 325.2636 15.40829307  5671"
      },
      "geometry": {
        "type": "Point",
        "coordinates": [
          36.48404220441202,
          -25.268279425373542
        ]
      }
    }
  ]
}